1 43565U 18060B   19246.96554764 -.00000055  00000-0  00000-0 0  9997
2 43565  56.6220  48.9314 0002292 263.7009  96.2856  1.70475977  6961
1 43565U 18060B   19247.55213024 -.00000055  00000-0  00000-0 0  9994
2 43565  56.6224  48.9153 0002302 263.3507  96.6362  1.70476001  6973
1 43565U 18060B   19249.31187955 -.00000054  00000-0  00000+0 0  9991
2 43565  56.6238  48.8669 0002330 262.3122  97.6767  1.70476065  7007
1 43565U 18060B   19250.48504456 -.00000054  00000-0  00000-0 0  9991
2 43565  56.6244  48.8347 0002342 261.7973  98.1923  1.70476095  7022
1 43565U 18060B   19252.83136641 -.00000053  00000-0  00000+0 0  9997
2 43565  56.6260  48.7703 0002388 260.6739  99.3132  1.70476206  7066
1 43565U 18060B   19253.41794445 -.00000053  00000-0  00000-0 0  9995
2 43565  56.6265  48.7543 0002415 260.2692  99.7163  1.70476269  7076
1 43565U 18060B   19255.17768158 -.00000051  00000-0  00000+0 0  9999
2 43565  56.6278  48.7061 0002443 260.0803  99.9001  1.70476275  7102
1 43565U 18060B   19256.35084031 -.00000049  00000-0  00000-0 0  9999
2 43565  56.6283  48.6739 0002452 260.0084  99.9688  1.70476259  7125
1 43565U 18060B   19257.52399873 -.00000046  00000-0  00000-0 0  9999
2 43565  56.6291  48.6418 0002474 259.7051 100.2693  1.70476271  7149
1 43565U 18060B   19258.11057880 -.00000045  00000-0  00000+0 0  9992
2 43565  56.6295  48.6257 0002478 259.5764 100.3971  1.70476268  7154
1 43565U 18060B   19259.28374041 -.00000041  00000-0  00000-0 0  9999
2 43565  56.6303  48.5936 0002520 258.9567 101.0158  1.70476242  7178
1 43565U 18060B   19260.45690375 -.00000038  00000-0  00000+0 0  9996
2 43565  56.6311  48.5614 0002542 258.6791 101.2939  1.70476238  7196
1 43565U 18060B   19262.21665242 -.00000033  00000-0  00000-0 0  9993
2 43565  56.6324  48.5132 0002623 257.8570 102.1184  1.70476165  7226
1 43565U 18060B   19265.14956615 -.00000028  00000-0  00000+0 0  9998
2 43565  56.6344  48.4327 0002703 257.3164 102.6625  1.70476084  7276
1 43565U 18060B   19266.90930566 -.00000030  00000-0  00000-0 0  9994
2 43565  56.6356  48.3843 0002760 256.8596 103.1162  1.70476047  7302
1 43565U 18060B   19268.08246181 -.00000035  00000-0  00000+0 0  9992
2 43565  56.6365  48.3521 0002777 256.6861 103.2853  1.70476039  7327
1 43565U 18060B   19268.66903721 -.00000038  00000-0  00000-0 0  9990
2 43565  56.6368  48.3360 0002808 256.4481 103.5202  1.70476052  7339
1 43565U 18060B   19269.84219197 -.00000045  00000-0  00000-0 0  9996
2 43565  56.6378  48.3037 0002841 256.1181 103.8440  1.70476008  7352
1 43565U 18060B   19272.18850326 -.00000057  00000-0  00000+0 0  9994
2 43565  56.6395  48.2392 0002916 255.7634 104.1895  1.70476042  7395
1 43565U 18060B   19273.36166441 -.00000061  00000-0  00000-0 0  9999
2 43565  56.6406  48.2069 0002960 255.6600 104.2916  1.70476065  7413
1 43565U 18060B   19274.53482887 -.00000063  00000-0  00000+0 0  9995
2 43565  56.6413  48.1747 0002996 255.4532 104.4992  1.70476104  7436
1 43565U 18060B   19274.53482887 -.00000063  00000-0  00000-0 0  9996
2 43565  56.6413  48.1747 0002996 255.4532 104.4992  1.70476104  7436
1 43565U 18060B   19278.05432667 -.00000064  00000-0  00000-0 0  9999
2 43565  56.6438  48.0781 0003107 255.0421 104.9157  1.70476249  7492
1 43565U 18060B   19278.05432717 -.00000064  00000-0  00000+0 0  9994
2 43565  56.6439  48.0781 0003095 255.1207 104.8373  1.70476219  7498
1 43565U 18060B   19279.22748950 -.00000065  00000-0  00000-0 0  9995
2 43565  56.6445  48.0459 0003145 254.9878 104.9699  1.70476294  7512
1 43565U 18060B   19280.40065001 -.00000065  00000-0  00000+0 0  9995
2 43565  56.6453  48.0137 0003162 255.0114 104.9454  1.70476321  7530
1 43565U 18060B   19282.16038798 -.00000065  00000-0  00000-0 0  9994
2 43565  56.6464  47.9655 0003218 255.0956 104.8578  1.70476375  7569
1 43565U 18060B   19283.92012670 -.00000062  00000-0  00000+0 0  9996
2 43565  56.6476  47.9173 0003270 255.2189 104.7312  1.70476390  7590
1 43565U 18060B   19286.26644916 -.00000057  00000-0  00000-0 0  9995
2 43565  56.6489  47.8531 0003371 255.4452 104.5036  1.70476389  7632
1 43565U 18060B   19286.26644986 -.00000057  00000-0  00000+0 0  9991
2 43565  56.6490  47.8530 0003352 255.4219 104.5270  1.70476379  7632
1 43565U 18060B   19287.43961412 -.00000054  00000-0  00000-0 0  9995
2 43565  56.6497  47.8209 0003402 255.5360 104.4144  1.70476367  7654
1 43565U 18060B   19289.19936453 -.00000049  00000-0  00000+0 0  9990
2 43565  56.6509  47.7726 0003460 255.6573 104.2975  1.70476331  7686
1 43565U 18060B   19289.78594870 -.00000048  00000-0  00000-0 0  9998
2 43565  56.6513  47.7565 0003479 255.7276 104.2290  1.70476313  7694
1 43565U 18060B   19292.13228285 -.00000044  00000-0  00000+0 0  9990
2 43565  56.6527  47.6922 0003564 256.0545 103.9080  1.70476248  7738
1 43565U 18060B   19293.30544690 -.00000044  00000-0  00000-0 0  9992
2 43565  56.6535  47.6600 0003605 256.1659 103.7972  1.70476201  7752
1 43565U 18060B   19293.89202631 -.00000045  00000-0  00000-0 0  9993
2 43565  56.6538  47.6438 0003644 256.2543 103.7081  1.70476184  7762
1 43565U 18060B   19296.23833994 -.00000055  00000-0  00000+0 0  9996
2 43565  56.6553  47.5793 0003733 256.3963 103.5592  1.70476149  7809
1 43565U 18060B   19296.23833994 -.00000055  00000-0  00000-0 0  9997
2 43565  56.6553  47.5793 0003733 256.3963 103.5592  1.70476149  7809
1 43565U 18060B   19297.41149601 -.00000062  00000-0  00000-0 0  9991
2 43565  56.6561  47.5471 0003755 256.4516 103.4995  1.70476140  7829
1 43565U 18060B   19298.58465201 -.00000069  00000-0  00000-0 0  9994
2 43565  56.6570  47.5148 0003811 256.5768 103.3705  1.70476144  7847
1 43565U 18060B   19298.58465295 -.00000069  00000-0  00000+0 0  9996
2 43565  56.6569  47.5148 0003799 256.5827 103.3647  1.70476133  7849
1 43565U 18060B   19300.34439397 -.00000076  00000-0  00000-0 0  9997
2 43565  56.6582  47.4664 0003856 256.7823 103.1636  1.70476166  7873
1 43565U 18060B   19301.51755945 -.00000079  00000-0  00000+0 0  9999
2 43565  56.6590  47.4341 0003899 256.9281 103.0196  1.70476189  7898
1 43565U 18060B   19302.10414274 -.00000080  00000-0  00000-0 0  9995
2 43565  56.6594  47.4181 0003916 257.0397 102.9094  1.70476216  7902
1 43565U 18060B   19304.45047891 -.00000081  00000-0  00000+0 0  9992
2 43565  56.6609  47.3536 0003988 257.3086 102.6475  1.70476289  7943
1 43565U 18060B   19306.79680826 -.00000082  00000-0  00000+0 0  9993
2 43565  56.6624  47.2891 0004075 257.5435 102.4158  1.70476383  7986
1 43565U 18060B   19306.79680826 -.00000082  00000-0  00000-0 0  9994
2 43565  56.6624  47.2891 0004075 257.5435 102.4158  1.70476383  7986
1 43565U 18060B   19308.55654990 -.00000082  00000-0  00000-0 0  9993
2 43565  56.6635  47.2408 0004161 258.0021 101.9564  1.70476453  8013
1 43565U 18060B   19308.55655026 -.00000082  00000-0  00000-0 0  9994
2 43565  56.6647  47.2442 0004000 261.4989  98.4561  1.70476363  8036
1 43565U 18060B   19311.48945199 -.00000079  00000-0  00000+0 0  9998
2 43565  56.6654  47.1602 0004236 258.5803 101.3764  1.70476470  8065
1 43565U 18060B   19313.24919625 -.00000074  00000-0  00000-0 0  9995
2 43565  56.6664  47.1119 0004314 259.0689 100.8889  1.70476473  8092
1 43565U 18060B   19314.42236199 -.00000071  00000-0  00000+0 0  9990
2 43565  56.6672  47.0797 0004335 259.1907 100.7698  1.70476471  8117
1 43565U 18060B   19317.35528341 -.00000062  00000-0  00000+0 0  9998
2 43565  56.6690  46.9992 0004455 259.9053 100.0658  1.70476401  8162
1 43565U 18060B   19319.11503626 -.00000058  00000-0  00000-0 0  9999
2 43565  56.6702  46.9508 0004510 260.3221  99.6552  1.70476357  8193
1 43565U 18060B   19321.46136494 -.00000058  00000-0  00000+0 0  9994
2 43565  56.6717  46.8863 0004588 260.8452  99.1346  1.70476268  8230
1 43565U 18060B   19322.63452403 -.00000062  00000-0  00000-0 0  9991
2 43565  56.6723  46.8540 0004639 261.0982  98.8794  1.70476220  8250
1 43565U 18060B   19323.80767978 -.00000067  00000-0  00000+0 0  9991
2 43565  56.6731  46.8218 0004672 261.3329  98.6414  1.70476234  8270
1 43565U 18060B   19323.80767978 -.00000067  00000-0  00000-0 0  9992
2 43565  56.6731  46.8218 0004672 261.3329  98.6414  1.70476234  8270
1 43565U 18060B   19324.98083581 -.00000074  00000-0  00000-0 0  9991
2 43565  56.6739  46.7894 0004718 261.5815  98.3891  1.70476226  8299
1 43565U 18060B   19325.56741408 -.00000077  00000-0  00000-0 0  9998
2 43565  56.6743  46.7732 0004752 261.8386  98.1305  1.70476225  8308
1 43565U 18060B   19328.50032104 -.00000087  00000-0  00000+0 0  9991
2 43565  56.6762  46.6926 0004829 262.3944  97.5755  1.70476260  8350
1 43565U 18060B   19329.67348852 -.00000088  00000-0  00000-0 0  9992
2 43565  56.6770  46.6603 0004879 262.7714  97.2019  1.70476302  8374
1 43565U 18060B   19331.43324133 -.00000089  00000-0  00000+0 0  9995
2 43565  56.6782  46.6119 0004918 263.1231  96.8563  1.70476354  8402
1 43565U 18060B   19336.12589800 -.00000088  00000-0  00000+0 0  9999
2 43565  56.6811  46.4829 0005056 264.2487  95.7353  1.70476453  8483
1 43565U 18060B   19337.29905757 -.00000087  00000-0  00000-0 0  9991
2 43565  56.6819  46.4506 0005092 264.6705  95.3126  1.70476508  8508
1 43565U 18060B   19338.47221929 -.00000085  00000-0  00000+0 0  9991
2 43565  56.6826  46.4184 0005114 264.9147  95.0682  1.70476496  8528
1 43565U 18060B   19338.47221929 -.00000085  00000-0  00000-0 0  9992
2 43565  56.6826  46.4184 0005114 264.9147  95.0682  1.70476496  8528
1 43565U 18060B   19339.05879956 -.00000083  00000-0  00000-0 0  9994
2 43565  56.6830  46.4022 0005131 265.0868  94.8961  1.70476521  8532
1 43565U 18060B   19341.40512901 -.00000075  00000-0  00000+0 0  9990
2 43565  56.6845  46.3377 0005184 265.4996  94.4868  1.70476487  8571
1 43565U 18060B   19342.57829614 -.00000070  00000-0  00000-0 0  9997
2 43565  56.6853  46.3054 0005230 265.8599  94.1298  1.70476460  8594
